[{"OBJECT_NAME":"JILIN-1 GAOFEN 03D50","OBJECT_ID":"2022-167J","EPOCH":"2026-03-09T22:35:59.947584","MEAN_MOTION":15.32279726,"ECCENTRICITY":0.00065764,"INCLINATION":97.6731,"RA_OF_ASC_NODE":232.9458,"ARG_OF_PERICENTER":101.1473,"MEAN_ANOMALY":259.0507,"EPHEMERIS_TYPE":0,"CLASSIFICATION_TYPE":"U","NORAD_CAT_ID":54690,"ELEMENT_SET_NO":999,"REV_AT_EPOCH":18014,"BSTAR":0.00049467973,"MEAN_MOTION_DOT":0.00015359,"MEAN_MOTION_DDOT":0},{"OBJECT_NAME":"STARLINK-31336","OBJECT_ID":"2024-027P","EPOCH":"2026-03-09T22:40:37.119648","MEAN_MOTION":15.30189602,"ECCENTRICITY":0.00011028,"INCLINATION":53.1596,"RA_OF_ASC_NODE":308.6965,"ARG_OF_PERICENTER":124.7203,"MEAN_ANOMALY":235.3902,"EPHEMERIS_TYPE":0,"CLASSIFICATION_TYPE":"U","NORAD_CAT_ID":58944,"ELEMENT_SET_NO":999,"REV_AT_EPOCH":11735,"BSTAR":8.6423365e-5,"MEAN_MOTION_DOT":2.201e-5,"MEAN_MOTION_DDOT":0}]
